ASTERIA                 
1 43020U 98067NH  18330.86850320  .00015652  00000-0  17226-3 0  9996
2 43020  51.6423 274.8896 0003235  74.2358 285.8993 15.63337865 57900
DELLINGR (RBLE)         
1 43021U 98067NJ  18330.86191633  .00006989  00000-0  91714-4 0  9990
2 43021  51.6397 279.2861 0003125  64.0750 296.0565 15.59786381 57841
OSIRIS-3U               
1 43027U 98067NL  18330.87494661  .00063289  00000-0  37115-3 0  9994
2 43027  51.6368 260.4954 0005137  94.3260 265.8327 15.77666700 57973
AEROCUBE 7B             
1 43042U 17071F   18330.87561682  .00002978  00000-0  83719-4 0  9995
2 43042  51.6393 328.3670 0005208 130.2721 229.8720 15.39872733 54661
AEROCUBE 7C             
1 43043U 17071G   18330.87542025  .00002923  00000-0  82340-4 0  9995
2 43043  51.6396 328.3747 0005290 131.8449 228.2987 15.39871935 54633
CHEFSAT                 
1 43044U 17071H   18330.43197855  .00004514  00000-0  11564-3 0  9992
2 43044  51.6399 328.4688 0005137 127.9868 232.1582 15.41459339 54596
ASGARDIA 1              
1 43049U 17071N   18330.45399445  .00002430  00000-0  69876-4 0  9993
2 43049  51.6398 330.0739 0002668 142.5694 217.5477 15.39989993 54560
ISARA                   
1 43050U 17071P   18330.39236898  .00004183  00000-0  10891-3 0  9999
2 43050  51.6392 328.9359 0002500 136.2259 223.8924 15.41158157 54573
FAUNA                   
1 43052U 17071R   18330.42560504  .00002798  00000-0  78468-4 0  9994
2 43052  51.6400 329.8977 0002630 138.1876 221.9310 15.40180898 54564
CORVUS BC3              
1 43118U 18004H   18330.62327774  .00000667  00000-0  31868-4 0  9992
2 43118  97.5144  33.3783 0009131 242.6297 117.4011 15.22512945 48421
MICROMAS-2A             
1 43131U 18004W   18330.31172662  .00001611  00000-0  70784-4 0  9997
2 43131  97.5158  33.3696 0008230 246.4544 113.5829 15.23374613 48399
GOMX4-B                 
1 43196U 18015E   18330.74581757  .00000474  00000-0  22584-4 0  9997
2 43196  97.3662  96.5663 0018274 308.9474  51.0167 15.23764347 45281
GOMX4-A                 
1 43197U 18015F   18330.69381928  .00000288  00000-0  14853-4 0  9993
2 43197  97.3683  96.5246 0018308 310.4108 157.8925 15.23832741 45283
1KUNS-PF                
1 43466U 98067NP  18330.32546909  .00011559  00000-0  14928-3 0  9994
2 43466  51.6400 286.1936 0001595  69.9441 290.1723 15.59460752 30965
UBAKUSAT                
1 43467U 98067NQ  18330.44433115  .00008900  00000-0  12127-3 0  9997
2 43467  51.6390 286.2377 0003189  35.8734 324.2472 15.58366769 30986
BATSU-CS1 (IRAZU)       
1 43468U 98067NR  18330.34047347  .00015123  00000-0  18724-3 0  9999
2 43468  51.6396 285.5435 0001602  73.0363 287.0806 15.60299243130961
CUBERRT                 
1 43546U 98067NU  18330.35038825  .00018982  00000-0  25621-3 0  9998
2 43546  51.6396 288.6012 0006834  83.0487 277.1282 15.57792584 21074
TEMPEST-D               
1 43547U 98067NV  18330.47029214  .00003000  00000-0  49513-4 0  9996
2 43547  51.6398 288.6478 0006751  80.2141 279.9613 15.55836420 20766
RAINCUBE                
1 43548U 98067NW  18330.50469480  .00009189  00000-0  13208-3 0  9999
2 43548  51.6395 288.1286 0006867  89.2619 270.9159 15.56860616 21226
HALOSAT                 
1 43549U 98067NX  18330.37687499  .00009081  00000-0  13059-3 0  9992
2 43549  51.6396 288.7761 0006818  90.7506 269.4267 15.56863652 20764
ENDUROSAT ONE           
1 43551U 98067NZ  18330.34034930  .00009984  00000-0  13971-3 0  9993
2 43551  51.6393 288.5299 0007382  96.2047 263.9787 15.57472139 21175
EQUISAT                 
1 43552U 98067PA  18330.35274078  .00008990  00000-0  12809-3 0  9999
2 43552  51.6392 288.6151 0007559  96.8651 263.3201 15.57127942 21136
AEROCUBE 12A            
1 43556U 18046C   18330.44996434  .00001666  00000-0  72799-4 0  9997
2 43556  51.6425 315.8755 0008985  62.1146 298.0742 15.28046284 20321
AEROCUBE 12B            
1 43557U 18046D   18330.45175208  .00001405  00000-0  63520-4 0  9990
2 43557  51.6425 315.8867 0009005  62.3247 297.8645 15.27997538 20273
UITMSAT-1               
1 43589U 98067PD  18330.33605632  .00009292  00000-0  13388-3 0  9990
2 43589  51.6391 289.2490 0006908 103.6748 256.5013 15.56777852 16868
MAYA-1                  
1 43590U 98067PE  18330.84767456  .00009455  00000-0  13593-3 0  9990
2 43590  51.6392 286.6666 0006973 106.4240 253.7519 15.56813465 16879
BHUTAN-1                
1 43591U 98067PF  18330.84492709  .00009478  00000-0  13603-3 0  9994
2 43591  51.6394 286.6488 0007049 107.5137 252.6625 15.56856157 16877
SIRIUSSAT-1             
1 43595U 98067PG  18330.87701473  .00009935  00000-0  14485-3 0  9999
2 43595  51.6393 286.8584 0004704  67.2746 292.8742 15.56370659 16056
SIRIUSSAT-2             
1 43596U 98067PH  18330.37286112  .00009295  00000-0  13679-3 0  9996
2 43596  51.6403 289.5013 0005339  67.4403 292.7153 15.56203465 15978
TANUSHA-3               
1 43597U 98067PJ  18330.87434141  .00011567  00000-0  16595-3 0  9994
2 43597  51.6381 286.8304 0004970  79.7815 280.3737 15.56620314 16057
SURFSAT                 
1 43614U 18070B   18330.55800750  .00002631  00000-0  73657-4 0  9993
2 43614  93.0328 279.2688 0018256  21.1341 339.0645 15.36556327 11051
CP-7 (DAVE)             
1 43615U 18070C   18330.55778227  .00002411  00000-0  67527-4 0  9992
2 43615  93.0328 279.2695 0018163  21.2998 338.8988 15.36550918 11053
ELFIN-B                 
1 43616U 18070D   18330.35779203 -.00000006  00000-0  00000+0 0  9993
2 43616  93.0303 279.1546 0019736  24.7515 335.4791 15.36707406 11029
ELFIN-A                 
1 43617U 18070E   18330.61679400 -.00000006  00000-0  00000+0 0  9991
2 43617  93.0354 279.3203 0018421  19.7124 340.4965 15.36743092 11062
DEBRISSAT-1             
1 43621U 98067PM  18330.89027345  .00073571  00000-0  77493-3 0  9995
2 43621  51.6461 284.7442 0009062  79.5584 280.6359 15.63552887 11079
CUBEBEL-1 (BSUSAT-1)    
1 43666U 18083E   18330.82899306  .00001070  00000-0  57242-4 0  9997
2 43666  97.5374 351.5567 0015468 169.8903 180.8785 15.17147508  4363
DEBRISSAT-2             
1 43680U 98067PR  18330.41290599  .00012719  00000-0  18502-3 0  9994
2 43680  51.6434 289.0038 0004904  93.9282 266.2271 15.56137177 24720
